[
  {
    "name": "榆次区永亮幼儿园",
    "address": "山西省晋中市榆次区新华街道锦纶南路永亮幼儿园(潇河湾北)",
    "latlon": [112.766051,37.681724],
    "tel": "0354-5222056",
    "zipcode": "030900",
    "stauts": 1
  },
  {
    "name": "东长凝幼儿园",
    "address": "山西省晋中市榆次区长凝镇东长凝彭安清希望小学 ",
    "latlon": [112.900823,37.636644],
    "tel": "0354-5222056",
    "zipcode": "030900",
    "stauts": 1
  },
  {
    "name": "点金石艺扬幼儿园",
    "address": "晋中市榆次区新兴国际文教城3期 ",
    "latlon": [112.678898,37.743904],
    "tel": "0354-5222056",
    "zipcode": "030900",
    "stauts": 0
  },
  {
    "name": "修文镇中心幼儿园",
    "address": "山西省晋中市榆次区郭东线修文镇中心 ",
    "latlon": [112.724547,37.613917],
    "tel": "0354-5222056",
    "zipcode": "030900",
    "stauts": 1
  },
  {
    "name": "小康乐幼儿园",
    "address": "山西省晋中市榆次区X331山庄头村",
    "latlon": [112.858927,37.750024],
    "tel": "0354-5222056",
    "zipcode": "030900",
    "stauts": 1
  },
  {
    "name": "宗艾幼儿园",
    "address": "寿阳县宗艾中学校附近",
    "latlon": [113.124428,37.975261],
    "tel": "0354-5222056",
    "zipcode": "030900",
    "stauts": 0
  },
  {
    "name": "寿阳县滨河第一幼儿园",
    "address": "山西省晋中市寿阳县朝阳镇博大街滨河第一幼儿园",
    "latlon": [113.178852,37.892853],
    "tel": "0354-5222056",
    "zipcode": "030900",
    "stauts": 1
  },
  {
    "name": "温家庄中心幼儿园",
    "address": "山西省晋中市寿阳县温家庄中心小学",
    "latlon": [113.207128,37.968449],
    "tel": "0354-5222056",
    "zipcode": "030900",
    "stauts": 1
  },
  {
    "name": "和顺县河北幼儿园",
    "address": "河北街和楼前街南五巷的交叉口附近",
    "latlon": [113.587838,37.343405],
    "tel": "0354-5222056",
    "zipcode": "030900",
    "stauts": 1
  },
  {
    "name": "左权宏远幼儿园",
    "address": "万寿街与将军路交叉口西南150米",
    "latlon": [113.370629,37.086876],
    "tel": "0354-5222056",
    "zipcode": "030900",
    "stauts": 1
  },
  {
    "name": "左权县麻田新苗幼儿园",
    "address": "麻田大桥东50米",
    "latlon": [113.524229,36.799015],
    "tel": "0354-5222056",
    "zipcode": "030900",
    "stauts": 0
  },
  {
    "name": "寒王乡寒王村幼儿园",
    "address": "晋中市左权县",
    "latlon": [113.469624,37.221608],
    "tel": "0354-5222056",
    "zipcode": "030900",
    "stauts": 0
  },
  {
    "name": "平遥县第一幼儿园",
    "address": "山西省晋中市平遥县永安南路 ",
    "latlon": [112.172637,37.200055],
    "tel": "0354-5222056",
    "zipcode": "030900",
    "stauts": 1
  },
  {
    "name": "平遥县梁坡底中心幼儿园",
    "address": "372县道平遥县梁坡底中心小学附近",
    "latlon": [112.280901,37.114459],
    "tel": "0354-5222056",
    "zipcode": "030900",
    "stauts": 0
  },
  {
    "name": "昔阳县第二幼儿园",
    "address": "江口东街149号",
    "latlon": [113.712484,37.606979],
    "tel": "0354-5222056",
    "zipcode": "030900",
    "stauts": 1
  },
  {
    "name": "榆社县县极机关幼儿园",
    "address": "山西省晋中市榆社县顺城街33号",
    "latlon": [112.980091,37.078398],
    "tel": "0354-5222056",
    "zipcode": "030900",
    "stauts": 1
  },
  {
    "name": "亨源幼儿园",
    "address": "山西省晋中市太谷县",
    "latlon": [112.619856,37.453943],
    "tel": "0354-5222056",
    "zipcode": "030900",
    "stauts": 0
  },
  {
    "name": "太谷县第二幼儿园",
    "address": "山西省晋中市太谷县南大街第二幼儿园(太谷实验小学西南)",
    "latlon": [112.565805,37.433964],
    "tel": "0354-5222056",
    "zipcode": "030900",
    "stauts": 1
  },
  {
    "name": "祁县政府机关幼儿园",
    "address": "山西省晋中市祁县东风路150号",
    "latlon": [112.345642,37.363555],
    "tel": "0354-5222056",
    "zipcode": "030900",
    "stauts": 1
  },
  {
    "name": "东观幼儿园",
    "address": "商贸路",
    "latlon": [112.455347,37.386789],
    "tel": "0354-5222056",
    "zipcode": "030900",
    "stauts": 0
  },
  {
    "name": "义安幼儿园",
    "address": "山西省晋中市介休市义安镇兴安路义安中心幼儿园",
    "latlon": [112.001385,37.092918],
    "tel": "0354-5222056",
    "zipcode": "030900",
    "stauts": 0
  },
  {
    "name": "介休市第一幼儿园",
    "address": "新华北路136号",
    "latlon": [111.9215,37.049393],
    "tel": "0354-5222056",
    "zipcode": "030900",
    "stauts": 1
  },
  {
    "name": "灵石县城关幼儿园",
    "address": "221省道附近",
    "latlon": [111.788054,36.853525],
    "tel": "0354-5222056",
    "zipcode": "030900",
    "stauts": 1
  },
  {
    "name": "段纯中心幼儿园",
    "address": "灵石县段纯镇政府东南",
    "latlon": [111.578434,36.864179],
    "tel": "0354-5222056",
    "zipcode": "030900",
    "stauts": 0
  },
  {
    "name": "紫金幼儿园",
    "address": "山西省晋中市灵石县南关镇南峪线紫金幼儿园",
    "latlon": [111.691361,36.715487],
    "tel": "0354-5222056",
    "zipcode": "030900",
    "stauts": 1
  }
]
